FLOCK 4G-5              
1 62663U 25009BG  26068.45638436  .00011278  00000+0  40688-3 0  9997
2 62663  97.4058 151.2478 0002094 314.5072  45.5996 15.28679529 63699
STARLINK-33620          
1 63069U 25035T   26068.19638544  .00035094  00000+0  12783-2 0  9994
2 63069  43.0016 149.9253 0002195 276.6389  83.4213 15.27589414 59642
